[{"OBJECT_NAME":"STARLINK-2029","OBJECT_ID":"2021-036AW","EPOCH":"2026-03-10T00:00:02.999808","MEAN_MOTION":15.21612256,"ECCENTRICITY":0.00015554,"INCLINATION":53.1203,"RA_OF_ASC_NODE":99.8001,"ARG_OF_PERICENTER":84.4684,"MEAN_ANOMALY":239.4047,"EPHEMERIS_TYPE":0,"CLASSIFICATION_TYPE":"U","NORAD_CAT_ID":48320,"ELEMENT_SET_NO":999,"REV_AT_EPOCH":574,"BSTAR":0.039856739,"MEAN_MOTION_DOT":0.00990666,"MEAN_MOTION_DDOT":0},{"OBJECT_NAME":"OBJECT D","OBJECT_ID":"2021-050D","EPOCH":"2026-03-09T22:38:42.248256","MEAN_MOTION":15.23648479,"ECCENTRICITY":0.00079782,"INCLINATION":97.3398,"RA_OF_ASC_NODE":147.2286,"ARG_OF_PERICENTER":192.9806,"MEAN_ANOMALY":167.1228,"EPHEMERIS_TYPE":0,"CLASSIFICATION_TYPE":"U","NORAD_CAT_ID":48843,"ELEMENT_SET_NO":999,"REV_AT_EPOCH":26385,"BSTAR":0.00026174716,"MEAN_MOTION_DOT":6.21e-5,"MEAN_MOTION_DDOT":0}]
